IRIDIUM 155             
1 43573U 18061E   22318.30016280  .00000304  00000+0  10132-3 0  9990
2 43573  86.3984 244.4622 0002017  75.8824 284.2596 14.34216941225460
IRIDIUM 154             
1 43574U 18061F   22318.76951726  .00000246  00000+0  80922-4 0  9994
2 43574  86.3990 244.3366 0002388  86.2053 273.9416 14.34214027225585
IRIDIUM 163             
1 43575U 18061G   22318.75049083  .00000283  00000+0  94153-4 0  9990
2 43575  86.3988 244.3002 0001987  93.5887 266.5536 14.34219609225559
IRIDIUM 156             
1 43576U 18061H   22318.79489683  .00000277  00000+0  91774-4 0  9998
2 43576  86.3988 244.2873 0001807  84.7927 275.3475 14.34217378225543
IRIDIUM 164             
1 43577U 18061J   22318.35724066  .00000300  00000+0  99946-4 0  9994
2 43577  86.3987 244.4903 0002289  88.2476 271.8982 14.34216925225532
IRIDIUM 159             
1 43578U 18061K   22318.74413548  .00000258  00000+0  85216-4 0  9995
2 43578  86.3987 244.2932 0002296  86.4653 273.6805 14.34215005225552
IRIDIUM 180             
1 43922U 19002A   22318.32503783  .00000240  00000+0  78524-4 0  9994
2 43922  86.4012 181.4339 0002371  94.3421 265.8045 14.34220064201108
IRIDIUM 176             
1 43923U 19002B   22318.33380428  .00000793  00000+0  12185-3 0  9998
2 43923  86.6147 181.4699 0002272  86.6965 273.4512 14.72233110206383
IRIDIUM 168             
1 43924U 19002C   22318.38846093  .00000241  00000+0  79110-4 0  9999
2 43924  86.4015 181.4476 0002274  88.4077 271.7379 14.34220527201096
IRIDIUM 173             
1 43925U 19002D   22318.37577657  .00000236  00000+0  77314-4 0  9994
2 43925  86.4011 181.3954 0002208  89.8756 270.2693 14.34219699201078
IRIDIUM 169             
1 43926U 19002E   22318.47379834  .00000329  00000+0  10119-3 0  9995
2 43926  86.4282 212.8994 0004259   8.2048 351.9220 14.38613046201789
IRIDIUM 172             
1 43927U 19002F   22318.36942512  .00000243  00000+0  79780-4 0  9998
2 43927  86.4015 181.4025 0002241  89.9850 270.1602 14.34213604201087
IRIDIUM 175             
1 43928U 19002G   22318.73540784  .00000734  00000+0  11248-3 0  9994
2 43928  86.6149 181.1373 0002336  84.8991 275.2493 14.72242831206430
IRIDIUM 171             
1 43929U 19002H   22318.69925101  .00000234  00000+0  76645-4 0  9998
2 43929  86.4021 181.4249 0002290  88.0792 272.0666 14.34218019201124
IRIDIUM 170             
1 43930U 19002J   22318.74777640  .00000756  00000+0  11592-3 0  9997
2 43930  86.6147 181.3024 0002378  87.5174 272.6316 14.72250016206456
IRIDIUM 167             
1 43931U 19002K   22318.34406401  .00000247  00000+0  81078-4 0  9990
2 43931  86.4013 181.4234 0002342  92.4285 267.7179 14.34219037201071
